IRIDIUM 126             
1 42809U 17039G   23287.59868765  .00000603  00000+0  20820-3 0  9992
2 42809  86.4003  41.7555 0002065  85.9930 274.1502 14.34218374329978
IRIDIUM 124             
1 42810U 17039H   23287.59683967  .00000780  00000+0  22584-3 0  9998
2 42810  86.4519 338.5455 0002297  99.8877 260.2583 14.43269618334258
IRIDIUM 128             
1 42811U 17039J   23287.44987396  .00000796  00000+0  27702-3 0  9990
2 42811  86.3944  73.3514 0001949  82.6660 277.4757 14.34216887329980
IRIDIUM 121             
1 42812U 17039K   23287.61771816  .00000227  00000+0  73958-4 0  9992
2 42812  86.4006  41.7689 0002158  90.5266 269.6177 14.34214518329850
IRIDIUM 133             
1 42955U 17061A   23287.48160544  .00000058  00000+0  13664-4 0  9990
2 42955  86.3940  73.4315 0002136  83.8319 276.3120 14.34216343314789
IRIDIUM 100             
1 42956U 17061B   23287.47525660  .00000592  00000+0  20428-3 0  9992
2 42956  86.3939  73.3758 0002079  89.0186 271.1248 14.34220288314781
IRIDIUM 122             
1 42957U 17061C   23287.51331630  .00000629  00000+0  21745-3 0  9994
2 42957  86.3937  73.3574 0001879  87.1233 273.0178 14.34218536314792
IRIDIUM 129             
1 42958U 17061D   23287.46891540  .00000577  00000+0  19911-3 0  9994
2 42958  86.3939  73.4329 0001884  87.2237 272.9175 14.34215470314806
